start=new Date('2021-12-15T00:00:00.000Z').valueOf();
sats=[{"CENTER_NAME":"EARTH","GP_ID":"191694510","FILE":"3240057","MEAN_ANOMALY":"296.0896","DECAY_DATE":null,"REV_AT_EPOCH":"6666","NORAD_CAT_ID":"46561","ECCENTRICITY":"0.00024010","TLE_LINE1":"1 46561U 20070AF  21348.47967350  .00001400  00000-0  11286-3 0  9996","MEAN_MOTION":"15.06400229","RA_OF_ASC_NODE":"262.8340","OBJECT_ID":"2020-070AF","EPOCH":"2021-12-14T11:30:43.790400","COUNTRY_CODE":"US","TIME_SYSTEM":"UTC","INCLINATION":"53.0550","PERIOD":"95.592","LAUNCH_DATE":"2020-10-06","RCS_SIZE":"LARGE","BSTAR":"0.00011286000000","ARG_OF_PERICENTER":"64.0341","OBJECT_NAME":"STARLINK-1709","PERIAPSIS":"545.550","MEAN_MOTION_DOT":"0.00001400","OBJECT_TYPE":"PAYLOAD","EPHEMERIS_TYPE":"0","SEMIMAJOR_AXIS":"6925.348","CLASSIFICATION_TYPE":"U","MEAN_ELEMENT_THEORY":"SGP4","REF_FRAME":"TEME","APOAPSIS":"548.876","MEAN_MOTION_DDOT":"0.0000000000000","ELEMENT_SET_NO":"999","TLE_LINE2":"2 46561  53.0550 262.8340 0002401  64.0341 296.0896 15.06400229 66665","SITE":"AFETR"},{"ELEMENT_SET_NO":"999","SITE":"AFETR","TLE_LINE2":"2 46562  53.0550 257.8201 0002654  59.1502 300.9748 15.06406196 66738","MEAN_MOTION_DDOT":"0.0000000000000","APOAPSIS":"549.033","REF_FRAME":"TEME","MEAN_ELEMENT_THEORY":"SGP4","EPHEMERIS_TYPE":"0","SEMIMAJOR_AXIS":"6925.330","CLASSIFICATION_TYPE":"U","OBJECT_TYPE":"PAYLOAD","MEAN_MOTION_DOT":"0.00001348","PERIAPSIS":"545.357","ARG_OF_PERICENTER":"59.1502","OBJECT_NAME":"STARLINK-1714","RCS_SIZE":"LARGE","BSTAR":"0.00010938000000","LAUNCH_DATE":"2020-10-06","INCLINATION":"53.0550","PERIOD":"95.592","COUNTRY_CODE":"US","EPOCH":"2021-12-14T11:34:02.704800","TIME_SYSTEM":"UTC","RA_OF_ASC_NODE":"257.8201","OBJECT_ID":"2020-070AG","MEAN_MOTION":"15.06406196","TLE_LINE1":"1 46562U 20070AG  21348.48197575  .00001348  00000-0  10938-3 0  9996","ECCENTRICITY":"0.00026540","REV_AT_EPOCH":"6673","NORAD_CAT_ID":"46562","DECAY_DATE":null,"FILE":"3240057","MEAN_ANOMALY":"300.9748","GP_ID":"191694760","CENTER_NAME":"EARTH"},{"MEAN_MOTION_DDOT":"0.0000000000000","TLE_LINE2":"2 46563  53.0534 257.8844 0002136  64.2702 295.8507 15.06390603 66738","SITE":"AFETR","ELEMENT_SET_NO":"999","REF_FRAME":"TEME","MEAN_ELEMENT_THEORY":"SGP4","APOAPSIS":"548.722","SEMIMAJOR_AXIS":"6925.377","CLASSIFICATION_TYPE":"U","EPHEMERIS_TYPE":"0","OBJECT_TYPE":"PAYLOAD","OBJECT_NAME":"STARLINK-1730","ARG_OF_PERICENTER":"64.2702","MEAN_MOTION_DOT":"-0.00000419","PERIAPSIS":"545.763","BSTAR":"-0.00000921060000","RCS_SIZE":"LARGE","LAUNCH_DATE":"2020-10-06","INCLINATION":"53.0534","PERIOD":"95.593","TIME_SYSTEM":"UTC","COUNTRY_CODE":"US","EPOCH":"2021-12-14T11:07:31.285056","RA_OF_ASC_NODE":"257.8844","OBJECT_ID":"2020-070AH","MEAN_MOTION":"15.06390603","TLE_LINE1":"1 46563U 20070AH  21348.46355654 -.00000419  00000-0 -92106-5 0  9998","NORAD_CAT_ID":"46563","REV_AT_EPOCH":"6673","ECCENTRICITY":"0.00021360","MEAN_ANOMALY":"295.8507","FILE":"3240057","DECAY_DATE":null,"GP_ID":"191695012","CENTER_NAME":"EARTH"},{"LAUNCH_DATE":"2020-10-06","ARG_OF_PERICENTER":"62.0887","OBJECT_NAME":"STARLINK-1733","PERIAPSIS":"545.406","MEAN_MOTION_DOT":"0.00000115","RCS_SIZE":"LARGE","BSTAR":"0.00002667800000","CLASSIFICATION_TYPE":"U","SEMIMAJOR_AXIS":"6925.349","EPHEMERIS_TYPE":"0","OBJECT_TYPE":"PAYLOAD","MEAN_MOTION_DDOT":"0.0000000000000","ELEMENT_SET_NO":"999","SITE":"AFETR","TLE_LINE2":"2 46564  53.0550 258.8822 0002610  62.0887 298.0366 15.06399952 66702","REF_FRAME":"TEME","MEAN_ELEMENT_THEORY":"SGP4","APOAPSIS":"549.021","FILE":"3240057","MEAN_ANOMALY":"298.0366","DECAY_DATE":null,"GP_ID":"191695762","CENTER_NAME":"EARTH","REV_AT_EPOCH":"6670","NORAD_CAT_ID":"46564","ECCENTRICITY":"0.00026100","MEAN_MOTION":"15.06399952","OBJECT_ID":"2020-070AJ","RA_OF_ASC_NODE":"258.8822","TLE_LINE1":"1 46564U 20070AJ  21348.24607661  .00000115  00000-0  26678-4 0  9994","INCLINATION":"53.0550","PERIOD":"95.592","COUNTRY_CODE":"US","EPOCH":"2021-12-14T05:54:21.019104","TIME_SYSTEM":"UTC"},{"REV_AT_EPOCH":"6673","NORAD_CAT_ID":"46565","ECCENTRICITY":"0.00022360","CENTER_NAME":"EARTH","GP_ID":"191694011","FILE":"3240057","MEAN_ANOMALY":"295.7801","DECAY_DATE":null,"EPOCH":"2021-12-14T11:44:40.552800","COUNTRY_CODE":"US","TIME_SYSTEM":"UTC","PERIOD":"95.592","INCLINATION":"53.0650","TLE_LINE1":"1 46565U 20070AK  21348.48935825 -.00000526  00000-0 -16379-4 0  9992","RA_OF_ASC_NODE":"257.7476","OBJECT_ID":"2020-070AK","MEAN_MOTION":"15.06397197","RCS_SIZE":"LARGE","BSTAR":"-0.00001637900000","ARG_OF_PERICENTER":"64.3419","OBJECT_NAME":"STARLINK-1735","PERIAPSIS":"545.674","MEAN_MOTION_DOT":"-0.00000526","LAUNCH_DATE":"2020-10-06","MEAN_ELEMENT_THEORY":"SGP4","REF_FRAME":"TEME","APOAPSIS":"548.771","MEAN_MOTION_DDOT":"0.0000000000000","ELEMENT_SET_NO":"999","TLE_LINE2":"2 46565  53.0650 257.7476 0002236  64.3419 295.7801 15.06397197 66737","SITE":"AFETR","OBJECT_TYPE":"PAYLOAD","SEMIMAJOR_AXIS":"6925.357","EPHEMERIS_TYPE":"0","CLASSIFICATION_TYPE":"U"},{"TLE_LINE1":"1 46566U 20070AL  21348.47461305 -.00000538  00000-0 -17197-4 0  9991","RA_OF_ASC_NODE":"257.8576","OBJECT_ID":"2020-070AL","MEAN_MOTION":"15.06394535","COUNTRY_CODE":"US","EPOCH":"2021-12-14T11:23:26.567520","TIME_SYSTEM":"UTC","INCLINATION":"53.0532","PERIOD":"95.592","GP_ID":"191694261","CENTER_NAME":"EARTH","DECAY_DATE":null,"FILE":"3240057","MEAN_ANOMALY":"296.9682","ECCENTRICITY":"0.00024590","REV_AT_EPOCH":"6673","NORAD_CAT_ID":"46566","OBJECT_TYPE":"PAYLOAD","CLASSIFICATION_TYPE":"U","SEMIMAJOR_AXIS":"6925.365","EPHEMERIS_TYPE":"0","APOAPSIS":"548.933","MEAN_ELEMENT_THEORY":"SGP4","REF_FRAME":"TEME","ELEMENT_SET_NO":"999","SITE":"AFETR","TLE_LINE2":"2 46566  53.0532 257.8576 0002459  63.1558 296.9682 15.06394535 66730","MEAN_MOTION_DDOT":"0.0000000000000","LAUNCH_DATE":"2020-10-06","RCS_SIZE":"LARGE","BSTAR":"-0.00001719700000","PERIAPSIS":"545.527","MEAN_MOTION_DOT":"-0.00000538","ARG_OF_PERICENTER":"63.1558","OBJECT_NAME":"STARLINK-1740"},{"PERIOD":"95.592","INCLINATION":"53.0544","EPOCH":"2021-12-14T18:28:03.671616","COUNTRY_CODE":"US","TIME_SYSTEM":"UTC","OBJECT_ID":"2020-070AM","RA_OF_ASC_NODE":"256.5380","MEAN_MOTION":"15.06396395","TLE_LINE1":"1 46567U 20070AM  21348.76948694 -.00001173  00000-0 -59862-4 0  9996","REV_AT_EPOCH":"6678","NORAD_CAT_ID":"46567","ECCENTRICITY":"0.00024210","FILE":"3240175","MEAN_ANOMALY":"292.0627","DECAY_DATE":null,"CENTER_NAME":"EARTH","GP_ID":"191699547","MEAN_MOTION_DDOT":"0.0000000000000","ELEMENT_SET_NO":"999","SITE":"AFETR","TLE_LINE2":"2 46567  53.0544 256.5380 0002421  68.0619 292.0627 15.06396395 66781","MEAN_ELEMENT_THEORY":"SGP4","REF_FRAME":"TEME","APOAPSIS":"548.901","EPHEMERIS_TYPE":"0","SEMIMAJOR_AXIS":"6925.360","CLASSIFICATION_TYPE":"U","OBJECT_TYPE":"PAYLOAD","ARG_OF_PERICENTER":"68.0619","OBJECT_NAME":"STARLINK-1741","MEAN_MOTION_DOT":"-0.00001173","PERIAPSIS":"545.548","RCS_SIZE":"LARGE","BSTAR":"-0.00005986200000","LAUNCH_DATE":"2020-10-06"},{"TLE_LINE1":"1 46568U 20070AN  21348.77619773  .00031526  00000-0  67123-3 0  9992","MEAN_MOTION":"15.44668164","OBJECT_ID":"2020-070AN","RA_OF_ASC_NODE":"249.9603","COUNTRY_CODE":"US","EPOCH":"2021-12-14T18:37:43.483872","TIME_SYSTEM":"UTC","INCLINATION":"53.0530","PERIOD":"93.224","CENTER_NAME":"EARTH","GP_ID":"191701055","FILE":"3240266","MEAN_ANOMALY":"320.9583","DECAY_DATE":null,"REV_AT_EPOCH":"6689","NORAD_CAT_ID":"46568","ECCENTRICITY":"0.00076640","OBJECT_TYPE":"PAYLOAD","SEMIMAJOR_AXIS":"6810.490","CLASSIFICATION_TYPE":"U","EPHEMERIS_TYPE":"0","MEAN_ELEMENT_THEORY":"SGP4","REF_FRAME":"TEME","APOAPSIS":"437.575","MEAN_MOTION_DDOT":"0.0000000000000","ELEMENT_SET_NO":"999","TLE_LINE2":"2 46568  53.0530 249.9603 0007664  39.1977 320.9583 15.44668164 66893","SITE":"AFETR","LAUNCH_DATE":"2020-10-06","RCS_SIZE":"LARGE","BSTAR":"0.00067123000000","ARG_OF_PERICENTER":"39.1977","OBJECT_NAME":"STARLINK-1743","MEAN_MOTION_DOT":"0.00031526","PERIAPSIS":"427.136"},{"LAUNCH_DATE":"2020-10-06","ARG_OF_PERICENTER":"65.8878","OBJECT_NAME":"STARLINK-1747","MEAN_MOTION_DOT":"-0.00000128","PERIAPSIS":"545.681","RCS_SIZE":"LARGE","BSTAR":"0.00001030600000","SEMIMAJOR_AXIS":"6925.357","CLASSIFICATION_TYPE":"U","EPHEMERIS_TYPE":"0","OBJECT_TYPE":"PAYLOAD","MEAN_MOTION_DDOT":"0.0000000000000","ELEMENT_SET_NO":"999","TLE_LINE2":"2 46569  53.0543 257.9437 0002226  65.8878 294.2343 15.06397174 66735","SITE":"AFETR","MEAN_ELEMENT_THEORY":"SGP4","REF_FRAME":"TEME","APOAPSIS":"548.764","FILE":"3240057","MEAN_ANOMALY":"294.2343","DECAY_DATE":null,"CENTER_NAME":"EARTH","GP_ID":"191694511","REV_AT_EPOCH":"6673","NORAD_CAT_ID":"46569","ECCENTRICITY":"0.00022260","RA_OF_ASC_NODE":"257.9437","MEAN_MOTION":"15.06397174","OBJECT_ID":"2020-070AP","TLE_LINE1":"1 46569U 20070AP  21348.45250095 -.00000128  00000-0  10306-4 0  9993","INCLINATION":"53.0543","PERIOD":"95.592","COUNTRY_CODE":"US","EPOCH":"2021-12-14T10:51:36.082080","TIME_SYSTEM":"UTC"},{"REV_AT_EPOCH":"6673","NORAD_CAT_ID":"46570","ECCENTRICITY":"0.00024060","GP_ID":"191694761","CENTER_NAME":"EARTH","FILE":"3240057","MEAN_ANOMALY":"297.2758","DECAY_DATE":null,"COUNTRY_CODE":"US","EPOCH":"2021-12-14T11:49:58.301760","TIME_SYSTEM":"UTC","INCLINATION":"53.0542","PERIOD":"95.592","TLE_LINE1":"1 46570U 20070AQ  21348.49303590  .00000236  00000-0  34791-4 0  9991","OBJECT_ID":"2020-070AQ","MEAN_MOTION":"15.06403257","RA_OF_ASC_NODE":"257.7522","RCS_SIZE":"LARGE","BSTAR":"0.00003479100000","ARG_OF_PERICENTER":"62.8476","OBJECT_NAME":"STARLINK-1748","MEAN_MOTION_DOT":"0.00000236","PERIAPSIS":"545.537","LAUNCH_DATE":"2020-10-06","REF_FRAME":"TEME","MEAN_ELEMENT_THEORY":"SGP4","APOAPSIS":"548.870","MEAN_MOTION_DDOT":"0.0000000000000","ELEMENT_SET_NO":"999","TLE_LINE2":"2 46570  53.0542 257.7522 0002406  62.8476 297.2758 15.06403257 66733","SITE":"AFETR","OBJECT_TYPE":"PAYLOAD","EPHEMERIS_TYPE":"0","SEMIMAJOR_AXIS":"6925.339","CLASSIFICATION_TYPE":"U"}];
